[{"OBJECT_NAME":"STARLINK-31504","OBJECT_ID":"2024-056H","EPOCH":"2026-03-09T10:22:15.882528","MEAN_MOTION":15.27566705,"ECCENTRICITY":0.00012247,"INCLINATION":43.0012,"RA_OF_ASC_NODE":232.2747,"ARG_OF_PERICENTER":274.4841,"MEAN_ANOMALY":85.5871,"EPHEMERIS_TYPE":0,"CLASSIFICATION_TYPE":"U","NORAD_CAT_ID":59303,"ELEMENT_SET_NO":999,"REV_AT_EPOCH":11111,"BSTAR":1.9371967e-5,"MEAN_MOTION_DOT":2.71e-6,"MEAN_MOTION_DDOT":0},{"OBJECT_NAME":"OBJECT A","OBJECT_ID":"2025-234A","EPOCH":"2026-03-09T23:03:34.210368","MEAN_MOTION":15.32505956,"ECCENTRICITY":0.00130678,"INCLINATION":97.4388,"RA_OF_ASC_NODE":139.352,"ARG_OF_PERICENTER":148.634,"MEAN_ANOMALY":211.5684,"EPHEMERIS_TYPE":0,"CLASSIFICATION_TYPE":"U","NORAD_CAT_ID":66053,"ELEMENT_SET_NO":999,"REV_AT_EPOCH":2164,"BSTAR":0.0014840662,"MEAN_MOTION_DOT":0.00046856,"MEAN_MOTION_DDOT":0}]
